0 SL-3 R/B
1 08800U 76032B   13281.83516006  .00000003  00000-0 -57308-5 0  8528
2 08800 081.2481 087.8937 0094739 039.9420 092.4012 14.09888692928319
0 SL-3 R/B
1 08800U 76032B   13283.04288014  .00000030  00000-0  91522-5 0  8534
2 08800 081.2480 086.7188 0094700 036.5984 102.2315 14.09888680928481
0 SL-3 R/B
1 08800U 76032B   13285.95576527  .00000076  00000-0  34303-4 0  8550
2 08800 081.2485 083.8848 0094567 028.5007 126.7246 14.09888382928893
0 SL-3 R/B
1 08800U 76032B   13287.42630257  .00000123  00000-0  60177-4 0  8567
2 08800 081.2488 082.4541 0094484 024.3941 030.5283 14.09888408929107
0 SL-3 R/B
1 08800U 76032B   13288.85581155  .00000190  00000-0  96625-4 0  8579
2 08800 081.2493 081.0633 0094402 020.4115 086.0825 14.09888507929300
0 SL-3 R/B
1 08800U 76032B   13289.92091175  .00000208  00000-0  10673-3 0  8585
2 08800 081.2496 080.0272 0094339 017.4257 092.0766 14.09888509929452
0 SL-3 R/B
1 08800U 76032B   13291.40075913  .00000262  00000-0  13602-3 0  8599
2 08800 081.2499 078.5877 0094239 013.2605 043.1692 14.09888730929662
0 SL-3 R/B
1 08800U 76032B   13292.82998052  .00000328  00000-0  17214-3 0  8602
2 08800 081.2502 077.1975 0094152 009.2909 097.2542 14.09889123929860
0 SL-3 R/B
1 08800U 76032B   13293.83486270  .00000355  00000-0  18702-3 0  8612
2 08800 081.2504 076.2201 0094080 006.4860 157.5987 14.09889588930005
0 SL-3 R/B
1 08800U 76032B   13295.37605765  .00000363  00000-0  19120-3 0  8620
2 08800 081.2506 074.7211 0093966 002.1723 060.0468 14.09890491930225
